     2.100          NAVIGATION                              RINEX VERSION / TYPE
fic2rin                                 04/12/2015 00:27:41 PGM / RUN BY / DATE
                                                            END OF HEADER
 6 15  4 11  6  0  0.0  .132683664560D-03  .989075488178D-11  .000000000000D+00
     .390000000000D+02 -.166562500000D+02  .471448209139D-08 -.138626542608D+01
    -.640749931335D-06  .221265829168D-03  .909715890884D-05  .515372871208D+04
     .540000000000D+06  .968575477600D-07 -.106085324827D+01  .782310962677D-07
     .961705170652D+00  .204906250000D+03 -.303141768027D+01 -.806890753096D-08
     .310370071016D-09  .100000000000D+01  .183900000000D+04  .000000000000D+00
     .240000000000D+01  .000000000000D+00  .465661287308D-08  .390000000000D+02
     .532806000000D+06  .400000000000D+01
 7 15  4 11  6  0  0.0  .454445369542D-03  .272848410532D-11  .000000000000D+00
     .710000000000D+02  .884062500000D+02  .423946230491D-08  .238941764065D+01
     .454485416412D-05  .816063769162D-02  .682659447193D-05  .515372802925D+04
     .540000000000D+06 -.145286321640D-06  .210786389315D+01 -.540167093277D-07
     .970508825862D+00  .251875000000D+03 -.275746427203D+01 -.804319217410D-08
     .160363822654D-09  .100000000000D+01  .183900000000D+04  .000000000000D+00
     .240000000000D+01  .000000000000D+00 -.111758708954D-07  .710000000000D+02
     .532806000000D+06  .400000000000D+01
 8 15  4 11  6  0  0.0  .193980522454D-04  .341060513165D-12  .000000000000D+00
     .180000000000D+02  .626250000000D+02  .364693762388D-08 -.231850041924D+01
     .323727726936D-05  .145071895095D-01  .590644776821D-05  .515359301567D+04
     .540000000000D+06  .111758708954D-07  .221436062521D+01 -.169500708580D-06
     .994160158921D+00  .283875000000D+03 -.267899910284D+01 -.763638951485D-08
     .295012288446D-09  .100000000000D+01  .183900000000D+04  .000000000000D+00
     .240000000000D+01  .630000000000D+02 -.512227416039D-08  .180000000000D+02
     .532806000000D+06  .400000000000D+01
 9 15  4 11  6  0  0.0 -.134454108775D-03 -.841282599140D-11  .000000000000D+00
     .240000000000D+02  .399375000000D+02  .446340020425D-08 -.165955235957D+01
     .198744237423D-05  .424700090662D-03  .967644155025D-05  .515362298584D+04
     .540000000000D+06  .316649675369D-07  .103142341221D+01  .000000000000D+00
     .957856871018D+00  .190687500000D+03  .241008903884D+01 -.798318967475D-08
    -.357514891930D-09  .100000000000D+01  .183900000000D+04  .000000000000D+00
     .240000000000D+01  .000000000000D+00  .465661287308D-09  .240000000000D+02
     .532806000000D+06  .400000000000D+01
12 15  4 11  6  0  0.0  .283858738840D-03  .306954461848D-11  .000000000000D+00
     .890000000000D+02 -.198750000000D+02  .398802326003D-08  .187920985442D+01
    -.111386179924D-05  .550773576833D-02  .446289777756D-05  .515370590973D+04
     .540000000000D+06 -.875443220139D-07 -.310751120470D+01  .819563865662D-07
     .989777288540D+00  .305937500000D+03  .556012969909D+00 -.802354849872D-08
     .660741808263D-10  .100000000000D+01  .183900000000D+04  .000000000000D+00
     .240000000000D+01  .000000000000D+00 -.125728547573D-07  .890000000000D+02
     .532806000000D+06  .400000000000D+01
13 15  4 11  6  0  0.0 -.104601494968D-03 -.329691829393D-11  .000000000000D+00
     .910000000000D+02  .352812500000D+02  .394337854326D-08 -.313623363064D+01
     .192970037460D-05  .526895420626D-02  .100359320641D-04  .515368810272D+04
     .540000000000D+06 -.167638063431D-07  .114584921731D+01 -.409781932831D-07
     .974527448660D+00  .194156250000D+03  .206990073597D+01 -.766960518413D-08
    -.376087094108D-09  .100000000000D+01  .183900000000D+04  .000000000000D+00
     .240000000000D+01  .000000000000D+00 -.116415321827D-07  .910000000000D+02
     .532806000000D+06  .400000000000D+01
14 15  4 11  6  0  0.0  .717635266483D-04 -.284217094304D-11  .000000000000D+00
     .104000000000D+03  .364687500000D+02  .425196282560D-08 -.127758777136D+01
     .188313424587D-05  .795319001190D-02  .897608697414D-05  .515358189964D+04
     .540000000000D+06  .147148966789D-06  .111155481290D+01  .240281224251D-06
     .967046013920D+00  .212531250000D+03 -.197405324877D+01 -.794425948172D-08
    -.343942898031D-09  .100000000000D+01  .183900000000D+04  .000000000000D+00
     .340000000000D+01  .000000000000D+00 -.931322574615D-08  .104000000000D+03
     .532806000000D+06  .400000000000D+01
15 15  4 11  6  0  0.0 -.242887530476D-03 -.216004991671D-11  .000000000000D+00
     .940000000000D+02  .211250000000D+02  .498627912711D-08 -.191144494415D+01
     .108219683170D-05  .712430942804D-02  .900402665138D-05  .515362195396D+04
     .540000000000D+06 -.875443220139D-07  .988934480953D+00 -.949949026108D-07
     .933779458680D+00  .192812500000D+03  .389175852702D+00 -.818748389871D-08
    -.263939565571D-09  .100000000000D+01  .183900000000D+04  .000000000000D+00
     .240000000000D+01  .000000000000D+00 -.107102096081D-07  .940000000000D+02
     .532806000000D+06  .400000000000D+01
16 15  4 11  6  0  0.0 -.139785464853D-03  .352429196937D-11  .000000000000D+00
     .710000000000D+02 -.375937500000D+02  .402016745611D-08 -.259343483840D+00
    -.175274908543D-05  .825500045903D-02  .450760126114D-05  .515377719688D+04
     .540000000000D+06  .856816768646D-07 -.308885238827D+01 -.167638063431D-07
     .990331885172D+00  .304718750000D+03  .272479054532D+00 -.812390982202D-08
     .542879755978D-10  .100000000000D+01  .183900000000D+04  .000000000000D+00
     .240000000000D+01  .000000000000D+00 -.102445483208D-07  .710000000000D+02
     .532806000000D+06  .400000000000D+01
17 15  4 11  6  0  0.0 -.165748409927D-03 -.193267624127D-11  .000000000000D+00
     .590000000000D+02 -.795000000000D+02  .434410952103D-08 -.115728908162D+01
    -.387430191040D-05  .101116603473D-01  .884942710400D-05  .515374973106D+04
     .540000000000D+06  .949949026108D-07 -.206197926425D+01  .238418579102D-06
     .971824138433D+00  .214406250000D+03 -.201413519848D+01 -.798604693662D-08
     .803604901941D-10  .100000000000D+01  .183900000000D+04  .000000000000D+00
     .340000000000D+01  .000000000000D+00 -.107102096081D-07  .590000000000D+02
     .532806000000D+06  .400000000000D+01
18 15  4 11  6  0  0.0  .393046531826D-03  .284217094304D-11  .000000000000D+00
     .590000000000D+02  .634375000000D+01  .575345394016D-08  .332031955264D+00
     .523403286934D-06  .160257809330D-01  .684522092342D-05  .515376443672D+04
     .540000000000D+06 -.173225998878D-06 -.304025932015D-01  .987201929092D-07
     .925519097597D+00  .231875000000D+03 -.197780682154D+01 -.892858619717D-08
    -.277154401736D-09  .100000000000D+01  .183900000000D+04  .000000000000D+00
     .240000000000D+01  .000000000000D+00 -.111758708954D-07  .590000000000D+02
     .532806000000D+06  .400000000000D+01
19 15  4 11  6  0  0.0 -.506955664605D-03 -.125055521494D-11  .000000000000D+00
     .730000000000D+02 -.772500000000D+02  .429946480425D-08 -.194124050828D+01
    -.427104532719D-05  .111876935698D-01  .943243503571D-05  .515371932793D+04
     .540000000000D+06  .108033418655D-06 -.201221169381D+01 -.117346644402D-06
     .968871941954D+00  .197906250000D+03  .528874808181D+00 -.786068457192D-08
     .243581574722D-09  .100000000000D+01  .183900000000D+04  .000000000000D+00
     .240000000000D+01  .000000000000D+00 -.149011611938D-07  .730000000000D+02
     .532806000000D+06  .400000000000D+01
20 15  4 11  6  0  0.0  .309064052999D-03  .386535248253D-11  .000000000000D+00
     .102000000000D+03  .371875000000D+01  .563452041468D-08 -.702990437299D+00
     .219792127609D-06  .571785587817D-02  .681914389133D-05  .515578025055D+04
     .540000000000D+06 -.800937414169D-07 -.829203106495D-01  .670552253723D-07
     .926683258546D+00  .226531250000D+03  .122196875243D+01 -.864393148301D-08
    -.178221709364D-09  .100000000000D+01  .183900000000D+04  .000000000000D+00
     .240000000000D+01  .000000000000D+00 -.838190317154D-08  .102000000000D+03
     .532806000000D+06  .400000000000D+01
21 15  4 11  6  0  0.0 -.435413792729D-03 -.375166564481D-11  .000000000000D+00
     .710000000000D+02 -.165000000000D+02  .539486757503D-08  .140458881003D+01
    -.105611979961D-05  .225013901945D-01  .916980206966D-05  .515358682823D+04
     .540000000000D+06 -.519677996635D-06 -.107393269996D+01 -.325962901115D-06
     .933478164850D+00  .198406250000D+03 -.192318615496D+01 -.859357224249D-08
     .236081262304D-09  .100000000000D+01  .183900000000D+04  .000000000000D+00
     .485000000000D+01  .000000000000D+00 -.116415321827D-07  .710000000000D+02
     .532806000000D+06  .400000000000D+01
22 15  4 11  6  0  0.0  .338408164680D-03  .409272615798D-11  .000000000000D+00
     .790000000000D+02  .315625000000D+01  .577916929703D-08 -.112336725904D+00
     .251457095146D-06  .774957402609D-02  .635907053947D-05  .515368880463D+04
     .540000000000D+06 -.484287738800D-07 -.291454799005D-01  .130385160446D-07
     .923328676208D+00  .234500000000D+03 -.205962962910D+01 -.882072456144D-08
    -.246438836595D-09  .100000000000D+01  .183900000000D+04  .000000000000D+00
     .340000000000D+01  .000000000000D+00 -.176951289177D-07  .790000000000D+02
     .532806000000D+06  .400000000000D+01
23 15  4 11  6  0  0.0 -.101114623249D-03 -.250111042988D-11  .000000000000D+00
     .650000000000D+02  .387812500000D+02  .458876256895D-08 -.236293234562D+01
     .179745256901D-05  .996565353125D-02  .980682671070D-05  .515363906097D+04
     .540000000000D+06  .335276126862D-07  .104046025363D+01 -.160187482834D-06
     .948892147064D+00  .183593750000D+03 -.269876559549D+01 -.795390274055D-08
    -.261082303697D-09  .100000000000D+01  .183900000000D+04  .000000000000D+00
     .240000000000D+01  .000000000000D+00 -.200234353542D-07  .650000000000D+02
     .532806000000D+06  .400000000000D+01
